ORBCOMM FM07 [-]        
1 25119U 97084H   23311.37934483  .00005020  00000+0  15715-2 0  9994
2 25119  45.0147 300.7157 0001527 176.6388 183.4472 14.41581825356572
ORBCOMM FM03 [-]        
1 25158U 98007B   23311.44490254  .00003729  00000+0  14322-2 0  9991
2 25158 107.9777  11.0446 0048864 196.8664 163.0850 14.31447079339858
ORBCOMM FM04 [+]        
1 25159U 98007C   23311.11756030  .00003519  00000+0  13504-2 0  9991
2 25159 107.9757  13.1878 0044304 195.6918 164.2849 14.31711986339978
ORBCOMM FM17 [-]        
1 25413U 98046A   23311.50786218  .00002189  00000+0  85192-3 0  9996
2 25413  44.9936 145.0443 0002263 141.0797 219.0212 14.32495967318835
ORBCOMM FM18 [-]        
1 25414U 98046B   23311.63515292  .00003009  00000+0  10945-2 0  9998
2 25414  44.9936  75.3029 0005499 206.4011 153.6556 14.35043155319757
ORBCOMM FM19 [+]        
1 25415U 98046C   23311.37791347  .00003787  00000+0  13686-2 0  9995
2 25415  44.9938  77.6933 0004369 199.2746 189.8276 14.34905564319680
